{
  "type": "FeatureCollection",
  "features": [
    {
      "type": "Feature",
      "properties": {
        "norad_id": 35616,
        "name": "IRIDIUM 33 DEB",
        "group": "iridium-33-debris",
        "lat": -33.45445787467266,
        "lon": 166.8455402214713,
        "alt_km": 626.0302947243717,
        "timestamp": "2025-12-15T15:53:20.233936+00:00",
        "meta_object_name": "IRIDIUM 33 DEB",
        "meta_object_id": "1997-051QN",
        "meta_epoch": "2025-12-13T17:33:06.169824",
        "meta_mean_motion": 14.81853952,
        "meta_eccentricity": 0.00103784,
        "meta_inclination": 86.3548,
        "meta_ra_of_asc_node": 345.3124,
        "meta_arg_of_pericenter": 159.4251,
        "meta_mean_anomaly": 200.7391,
        "meta_ephemeris_type": 0,
        "meta_classification_type": "U",
        "meta_norad_cat_id": 35616,
        "meta_element_set_no": 999,
        "meta_rev_at_epoch": 87589,
        "meta_bstar": 0.0018690544,
        "meta_mean_motion_dot": 0.00014827,
        "meta_mean_motion_ddot": 0,
        "tle_line1": "1 35616U 97051QN  25347.73132141  .00014827  00000+0  18691-2 0  9994",
        "tle_line2": "2 35616  86.3548 345.3124 0010378 159.4251 200.7391 14.81853952875890"
      },
      "geometry": {
        "type": "Point",
        "coordinates": [
          166.8455402214713,
          -33.45445787467266
        ]
      }
    },
    {
      "type": "Feature",
      "properties": {
        "norad_id": 35618,
        "name": "IRIDIUM 33 DEB",
        "group": "iridium-33-debris",
        "lat": 28.97251005566919,
        "lon": -5.7439311067768095,
        "alt_km": 696.3151587527218,
        "timestamp": "2025-12-15T15:53:20.233945+00:00",
        "meta_object_name": "IRIDIUM 33 DEB",
        "meta_object_id": "1997-051QQ",
        "meta_epoch": "2025-12-05T07:42:53.148672",
        "meta_mean_motion": 14.52258119,
        "meta_eccentricity": 0.00302089,
        "meta_inclination": 86.3407,
        "meta_ra_of_asc_node": 356.7447,
        "meta_arg_of_pericenter": 46.3254,
        "meta_mean_anomaly": 314.0448,
        "meta_ephemeris_type": 0,
        "meta_classification_type": "U",
        "meta_norad_cat_id": 35618,
        "meta_element_set_no": 999,
        "meta_rev_at_epoch": 65286,
        "meta_bstar": 0.00091388234,
        "meta_mean_motion_dot": 3.753e-05,
        "meta_mean_motion_ddot": 0,
        "tle_line1": "1 35618U 97051QQ  25339.32144848  .00003753  00000+0  91388-3 0  9990",
        "tle_line2": "2 35618  86.3407 356.7447 0030208  46.3254 314.0448 14.52258119652865"
      },
      "geometry": {
        "type": "Point",
        "coordinates": [
          -5.7439311067768095,
          28.97251005566919
        ]
      }
    },
    {
      "type": "Feature",
      "properties": {
        "norad_id": 35620,
        "name": "IRIDIUM 33 DEB",
        "group": "iridium-33-debris",
        "lat": -41.52109065136152,
        "lon": 39.4260253462316,
        "alt_km": 682.0752956543583,
        "timestamp": "2025-12-15T15:53:20.233954+00:00",
        "meta_object_name": "IRIDIUM 33 DEB",
        "meta_object_id": "1997-051QS",
        "meta_epoch": "2025-12-14T08:47:37.258080",
        "meta_mean_motion": 14.3812904,
        "meta_eccentricity": 0.01406283,
        "meta_inclination": 86.3871,
        "meta_ra_of_asc_node": 216.7659,
        "meta_arg_of_pericenter": 253.5929,
        "meta_mean_anomaly": 104.9772,
        "meta_ephemeris_type": 0,
        "meta_classification_type": "U",
        "meta_norad_cat_id": 35620,
        "meta_element_set_no": 999,
        "meta_rev_at_epoch": 59989,
        "meta_bstar": 0.0051034736,
        "meta_mean_motion_dot": 0.000174,
        "meta_mean_motion_ddot": 0,
        "tle_line1": "1 35620U 97051QS  25348.36640345  .00017400  00000+0  51035-2 0  9998",
        "tle_line2": "2 35620  86.3871 216.7659 0140628 253.5929 104.9772 14.38129040599895"
      },
      "geometry": {
        "type": "Point",
        "coordinates": [
          39.4260253462316,
          -41.52109065136152
        ]
      }
    },
    {
      "type": "Feature",
      "properties": {
        "norad_id": 35622,
        "name": "IRIDIUM 33 DEB",
        "group": "iridium-33-debris",
        "lat": -70.20063709178213,
        "lon": -108.46745381445368,
        "alt_km": 555.1710674252272,
        "timestamp": "2025-12-15T15:53:20.233964+00:00",
        "meta_object_name": "IRIDIUM 33 DEB",
        "meta_object_id": "1997-051QU",
        "meta_epoch": "2025-12-14T12:14:43.972224",
        "meta_mean_motion": 15.04969242,
        "meta_eccentricity": 0.00054886,
        "meta_inclination": 86.2028,
        "meta_ra_of_asc_node": 262.7313,
        "meta_arg_of_pericenter": 323.1514,
        "meta_mean_anomaly": 209.8665,
        "meta_ephemeris_type": 0,
        "meta_classification_type": "U",
        "meta_norad_cat_id": 35622,
        "meta_element_set_no": 999,
        "meta_rev_at_epoch": 87386,
        "meta_bstar": 0.0048535985,
        "meta_mean_motion_dot": 0.00069411,
        "meta_mean_motion_ddot": 0,
        "tle_line1": "1 35622U 97051QU  25348.51023116  .00069411  00000+0  48536-2 0  9999",
        "tle_line2": "2 35622  86.2028 262.7313 0005488 323.1514 209.8665 15.04969242873864"
      },
      "geometry": {
        "type": "Point",
        "coordinates": [
          -108.46745381445368,
          -70.20063709178213
        ]
      }
    },
    {
      "type": "Feature",
      "properties": {
        "norad_id": 35628,
        "name": "IRIDIUM 33 DEB",
        "group": "iridium-33-debris",
        "lat": 85.13364209109521,
        "lon": 56.2012329616484,
        "alt_km": 664.1357245099616,
        "timestamp": "2025-12-15T15:53:20.233973+00:00",
        "meta_object_name": "IRIDIUM 33 DEB",
        "meta_object_id": "1997-051RA",
        "meta_epoch": "2025-12-13T19:18:48.561408",
        "meta_mean_motion": 14.67604958,
        "meta_eccentricity": 0.00102895,
        "meta_inclination": 86.3579,
        "meta_ra_of_asc_node": 8.6006,
        "meta_arg_of_pericenter": 338.9594,
        "meta_mean_anomaly": 21.1195,
        "meta_ephemeris_type": 0,
        "meta_classification_type": "U",
        "meta_norad_cat_id": 35628,
        "meta_element_set_no": 999,
        "meta_rev_at_epoch": 86462,
        "meta_bstar": 0.0015459634,
        "meta_mean_motion_dot": 8.811e-05,
        "meta_mean_motion_ddot": 0,
        "tle_line1": "1 35628U 97051RA  25347.80472872  .00008811  00000+0  15460-2 0  9990",
        "tle_line2": "2 35628  86.3579   8.6006 0010289 338.9594  21.1195 14.67604958864620"
      },
      "geometry": {
        "type": "Point",
        "coordinates": [
          56.2012329616484,
          85.13364209109521
        ]
      }
    },
    {
      "type": "Feature",
      "properties": {
        "norad_id": 35631,
        "name": "IRIDIUM 33 DEB",
        "group": "iridium-33-debris",
        "lat": 50.14484141213565,
        "lon": -164.64563526252948,
        "alt_km": 717.1593339067813,
        "timestamp": "2025-12-15T15:53:20.233982+00:00",
        "meta_object_name": "IRIDIUM 33 DEB",
        "meta_object_id": "1997-051RD",
        "meta_epoch": "2025-12-14T20:11:45.155904",
        "meta_mean_motion": 14.47317838,
        "meta_eccentricity": 0.00191711,
        "meta_inclination": 86.368,
        "meta_ra_of_asc_node": 20.0711,
        "meta_arg_of_pericenter": 111.665,
        "meta_mean_anomaly": 65.3128,
        "meta_ephemeris_type": 0,
        "meta_classification_type": "U",
        "meta_norad_cat_id": 35631,
        "meta_element_set_no": 999,
        "meta_rev_at_epoch": 87227,
        "meta_bstar": 0.00037102564,
        "meta_mean_motion_dot": 1.381e-05,
        "meta_mean_motion_ddot": 0,
        "tle_line1": "1 35631U 97051RD  25348.84149486  .00001381  00000+0  37103-3 0  9995",
        "tle_line2": "2 35631  86.3680  20.0711 0019171 111.6650  65.3128 14.47317838872278"
      },
      "geometry": {
        "type": "Point",
        "coordinates": [
          -164.64563526252948,
          50.14484141213565
        ]
      }
    },
    {
      "type": "Feature",
      "properties": {
        "norad_id": 35680,
        "name": "IRIDIUM 33 DEB",
        "group": "iridium-33-debris",
        "lat": -1.8996692066166831,
        "lon": -159.64158528689302,
        "alt_km": 818.7485539366435,
        "timestamp": "2025-12-15T15:53:20.233991+00:00",
        "meta_object_name": "IRIDIUM 33 DEB",
        "meta_object_id": "1997-051RJ",
        "meta_epoch": "2025-12-14T08:38:54.081024",
        "meta_mean_motion": 14.20954301,
        "meta_eccentricity": 0.01504449,
        "meta_inclination": 86.1029,
        "meta_ra_of_asc_node": 20.8049,
        "meta_arg_of_pericenter": 273.3107,
        "meta_mean_anomaly": 95.5624,
        "meta_ephemeris_type": 0,
        "meta_classification_type": "U",
        "meta_norad_cat_id": 35680,
        "meta_element_set_no": 999,
        "meta_rev_at_epoch": 60724,
        "meta_bstar": 0.0038932879,
        "meta_mean_motion_dot": 9.473e-05,
        "meta_mean_motion_ddot": 0,
        "tle_line1": "1 35680U 97051RJ  25348.36034816  .00009473  00000+0  38933-2 0  9997",
        "tle_line2": "2 35680  86.1029  20.8049 0150444 273.3107  95.5624 14.20954301607243"
      },
      "geometry": {
        "type": "Point",
        "coordinates": [
          -159.64158528689302,
          -1.8996692066166831
        ]
      }
    }
  ]
}